PROBA-1                 
1 26958U 01049B   26177.23019069  .00003822  00000+0  24715-3 0  9993
2 26958  97.9604 186.0778 0056389  92.2696 268.4989 15.07535164344980
CUTE-1 (CO-55)          
1 27844U 03031E   26176.95866144  .00000278  00000+0  13913-3 0  9993
2 27844  98.6736 185.4073 0010067 153.3060 206.8639 14.24340671192925
CUBESAT XI-IV (CO-57)   
1 27848U 03031J   26176.95152157  .00000236  00000+0  12262-3 0  9999
2 27848  98.6767 185.1059 0009591 171.2745 188.8601 14.23625133192626
APRIZESAT 4             
1 35684U 09041D   26177.15799374  .00000603  00000+0  78572-4 0  9999
2 35684  98.1410 252.6572 0041971 293.2143  66.4653 14.83889998912690
APRIZESAT 3             
1 35686U 09041F   26176.99324131  .00001086  00000+0  98317-4 0  9992
2 35686  98.2075 330.6394 0062573  39.0341 321.5369 14.96267873917696
PROBA-2                 
1 36037U 09059B   26176.97496339  .00000191  00000+0  55130-4 0  9992
2 36037  98.2452   0.2059 0011980 251.9786 108.0106 14.54865885882800
APRIZESAT 5             
1 37792U 11044E   26176.72228859  .00001018  00000+0  13580-3 0  9992
2 37792  98.2452 110.0046 0051639 336.7782  23.1096 14.81092885800052
APRIZESAT 6             
1 37793U 11044F   26176.68362860  .00000754  00000+0  11329-3 0  9994
2 37793  98.2358  87.3565 0044331  59.6909   3.8194 14.76927988798407
PROBA-V                 
1 39159U 13021A   26177.18588348  .00000084  00000+0  54955-4 0  9995
2 39159  98.3589 155.3485 0005382 102.7870 257.3911 14.23598958682395
APRIZESAT 7             
1 39416U 13066A   26176.87501948  .00001122  00000+0  11626-3 0  9997
2 39416  97.7710 129.9700 0035753 179.9977 180.1248 14.91580198682529
APRIZESAT 8             
1 39425U 13066K   26176.81811803  .00000826  00000+0  95359-4 0  9991
2 39425  97.8222 124.1658 0044374 257.1749 102.4507 14.87666692680951
BUGSAT-1 (TITA)         
1 40014U 14033E   26177.08108677  .00007052  00000+0  37061-3 0  9993
2 40014  98.0426 270.1505 0028658 148.3898 211.9061 15.15677577657188
SAUDISAT 4              
1 40016U 14033G   26176.97829207  .00000570  00000+0  81739-4 0  9991
2 40016  97.7592 322.8092 0045789  46.1738 314.3245 14.79554971647371
APRIZESAT 9             
1 40018U 14033J   26177.16698986  .00000745  00000+0  11654-3 0  9995
2 40018  97.9070 310.1466 0066400 170.2639 189.9875 14.74226706644888
APRIZESAT 10            
1 40019U 14033K   26176.90218187  .00000465  00000+0  80884-4 0  9999
2 40019  97.9659 303.6677 0077525 245.5195 113.7912 14.70890149643538
TECHDEMOSAT-1 (TDS-1)   
1 40076U 14037H   26177.21688477  .00008681  00000+0  49001-3 0  9997
2 40076  98.3811 170.3250 0005034 224.6884 135.3940 15.13418242649592
TECHNOSAT               
1 42829U 17042E   26177.15861521  .00003186  00000+0  22775-3 0  9994
2 42829  97.4293 334.4760 0019304  66.3786 293.9465 15.05012446488052
FLYING LAPTOP           
1 42831U 17042G   26177.18415558  .00003622  00000+0  28561-3 0  9999
2 42831  97.4724 332.3729 0019970  92.9950 267.3560 15.01200003487800
HAWK-A                  
1 43765U 18099H   26177.14244056  .00007219  00000+0  28997-3 0  9997
2 43765  97.3914 229.2617 0033166 252.6969 107.0639 15.24740723414467
HAWK-B                  
1 43794U 18099AN  26177.10895752  .00006552  00000+0  27889-3 0  9998
2 43794  97.3963 228.6248 0030224 271.8440  87.9335 15.22914723414397
HAWK-C                  
1 43799U 18099AT  26177.09867631  .00008924  00000+0  32007-3 0  9999
2 43799  97.3890 230.1746 0038782 252.8009 106.8983 15.28219351415278
SALSAT                  
1 46495U 20068K   26176.97551410  .00008659  00000+0  30155-3 0  9992
2 46495  97.8851 180.5757 0007809 270.5499  89.4845 15.29916367316705
HAWK-2C                 
1 47502U 21006CT  26177.08485657  .00007281  00000+0  21818-3 0  9993
2 47502  97.2279 221.2172 0007647 156.2285 203.9313 15.34764645300869
HAWK-2A                 
1 47505U 21006CW  26177.08726285  .00007331  00000+0  21958-3 0  9992
2 47505  97.2322 221.9027 0007110 159.0181 201.1356 15.34779347300860
HAWK-2B                 
1 47508U 21006CZ  26177.08225514  .00008361  00000+0  24926-3 0  9996
2 47508  97.2189 220.2150 0007692 157.7734 202.3844 15.34880808300867
HAWK-3B                 
1 48931U 21059BE  26177.12039191  .00046376  00000+0  38130-3 0  9994
2 48931  97.6656  14.6780 0003126 283.5042  76.5871 15.70297640279258
HAWK-3C                 
1 48948U 21059BX  26177.12006786  .00048539  00000+0  39882-3 0  9994
2 48948  97.6777  20.3789 0003390 285.5087  74.5799 15.70302980279258
HAWK-3A                 
1 48957U 21059CG  26177.11992323  .00047000  00000+0  38643-3 0  9990
2 48957  97.6720  17.5766 0003341 285.6154  74.4738 15.70293924279250
HAWK-5C                 
1 52754U 22057Y   26176.94439142  .00021140  00000+0  35654-3 0  9990
2 52754  97.6603 337.1781 0004386  55.0374 305.1289 15.51683985227708
HAWK-5B                 
1 52756U 22057AA  26176.68627608  .00022811  00000+0  38456-3 0  9998
2 52756  97.6612 335.2532 0005053  48.3219 311.8464 15.51676680227666
HAWK-5A                 
1 52757U 22057AB  26176.94402878  .00021318  00000+0  35946-3 0  9990
2 52757  97.6609 336.3590 0004929  50.2475 309.9210 15.51686138227707
